PROMETHEUS 2-3          
1 41855U 16067H   25165.52639745  .00035275  00000+0  65445-3 0  9991
2 41855  98.0703  18.6143 0004674 222.3195 137.7694 15.48873086471177
CORVUS BC2              
1 42846U 17042X   25165.43675975  .00003537  00000+0  26697-3 0  9993
2 42846  97.3713 337.7889 0013435 289.6036  70.3739 15.02956308431760
CORVUS BC1              
1 42847U 17042Y   25165.55359124  .00003537  00000+0  26524-3 0  9991
2 42847  97.3783 338.4379 0011453 262.4064  97.5862 15.03222400431801
MIRATA                  
1 43015U 17073C   25165.27555460  .00079370  00000+0  12440-2 0  9992
2 43015  97.5379  60.3090 0081515  69.5624 291.4356 15.49633876411531
MAKERSAT 0              
1 43016U 17073D   25165.62491622  .00014997  00000+0  59659-3 0  9999
2 43016  97.5179  43.7593 0147972 122.4797 239.0839 15.15743362410496
SIRION PATHFINDER-2     
1 43759U 18099B   25165.55180840  .00005481  00000+0  34121-3 0  9996
2 43759  97.4765 218.3582 0011157 124.1549 236.0740 15.09945957357065
CORVUS BC4              
1 43767U 18099K   25165.52212152  .00004262  00000+0  27758-3 0  9998
2 43767  97.4580 214.1253 0009189 175.4591 184.6723 15.08424365356901
MOVE-II                 
1 43780U 18099Y   25165.47606777  .00301413  00000+0  16048-2 0  9994
2 43780  97.4630 241.4910 0005471 197.4761 162.6319 15.79611997358577
SPACEBEE-7              
1 43816U 18099BL  25165.15838984  .00033183  00000+0  92711-3 0  9994
2 43816  97.4946 235.4725 0007453 103.1305 257.0771 15.36606198357507
SHIELDS 1               
1 43850U 18104B   25165.62991317  .00029095  00000+0  33939-3 0  9995
2 43850  85.0139  32.9939 0008742 117.2039 243.0116 15.61441715362246
SONATE                  
1 44400U 19038Q   25165.59242266  .00374236  60309-4  80291-3 0  9998
2 44400  97.6804 193.3385 0008175 196.1223 163.9794 15.98483438330373
DUCHIFAT-3              
1 44854U 19089C   25165.78847662  .00043376  00000+0  83212-3 0  9990
2 44854  36.9442 322.0704 0004368 348.0173  12.0480 15.47010801303750
M2 PATHFINDER           
1 45727U 20037E   25165.46808164  .00002719  00000+0  21078-3 0  9992
2 45727  97.8108 348.1523 0012373 317.2404  42.7857 15.02214041270241
NETSAT-4                
1 46504U 20068U   25165.51185949  .00011020  00000+0  37571-3 0  9995
2 46504  97.8454 143.6189 0007411 169.8445 190.2945 15.30529284259308
NETSAT-3                
1 46505U 20068V   25165.44376343  .00011368  00000+0  40563-3 0  9998
2 46505  97.8455 142.4766 0006801 180.7141 179.4089 15.29038157259259
NETSAT-1                
1 46506U 20068W   25165.44607525  .00008065  00000+0  33358-3 0  9992
2 46506  97.8484 140.2707 0005851 197.0609 163.0431 15.24241616259102
NETSAT-2                
1 46507U 20068X   25165.43829200  .00013280  00000+0  45759-3 0  9991
2 46507  97.8453 143.0246 0004848 192.2987 167.8134 15.30149034259233
WILDTRACKCUBE-SIMBA     
1 47941U 21022K   25165.75534447  .00027040  00000+0  55976-3 0  9997
2 47941  97.4221  70.4075 0007202 299.1832  60.8696 15.45725101233992
LEDSAT                  
1 49069U 21073D   25165.75509708  .00062144  00000+0  72242-3 0  9997
2 49069  97.3886 247.5106 0008799  66.5786 293.6396 15.61495709212243
GREENCUBE (IO-117)      
1 53109U 22080E   25165.10423688 -.00000003  00000+0  00000+0 0  9993
2 53109  70.1414  66.2468 0008717   8.6558 351.4251  6.42583828 68410
SITRO-AIS 5 (KATYS)     
1 57176U 23091L   25165.88816910  .00007949  00000+0  37290-3 0  9993
2 57176  97.5574 222.8467 0012558 315.7987  44.2244 15.19866128108384
SITRO-AIS 6 (CHIRKIN)   
1 57192U 23091AC  25165.74419420  .00007716  00000+0  36311-3 0  9996
2 57192  97.5571 222.7119 0012501 316.2115  43.8127 15.19769933108368
SITRO-AIS 8 (ANOKHIN)   
1 57193U 23091AD  25165.84440571  .00009469  00000+0  42695-3 0  9998
2 57193  97.5567 223.3281 0011953 315.1028  44.9239 15.21184405108412
SITRO-AIS 7 (FARTUSHNIY)
1 57194U 23091AE  25165.76609011  .00007894  00000+0  37242-3 0  9998
2 57194  97.5571 222.6721 0012419 316.6279  43.3977 15.19676636108366
SITRO-AIS 10 (BURDAEV)  
1 57199U 23091AK  25165.87984994  .00010297  00000+0  42065-3 0  9991
2 57199  97.5581 225.7140 0007564 297.1720  62.8746 15.24553203108562
SITRO-AIS 9 (SHCHUKIN)  
1 57201U 23091AM  25165.76694388  .00010844  00000+0  44535-3 0  9990
2 57201  97.5578 225.5122 0007562 298.0171  62.0301 15.24361153108546
SITRO-AIS 12 (SMIRENNIY)
1 57204U 23091AQ  25165.74834457  .00010428  00000+0  42589-3 0  9999
2 57204  97.5587 225.7778 0007408 290.2591  69.7849 15.24560955108550
SITRO-AIS 11 (SHEFFER)  
1 57208U 23091AU  25165.76626198  .00011036  00000+0  44777-3 0  9993
2 57208  97.5585 225.8858 0007280 290.4664  69.5791 15.24767382108561
VERONIKA                
1 58261U 23174F   25165.80791174  .00139974  00000+0  10571-2 0  9993
2 58261  97.4111 252.3010 0000652 351.8636   8.2617 15.72029718 89503
ROBUSTA-1E (ENSO)       
1 58470U 23185J   25165.84603594  .00047005  00000+0  66266-3 0  9995
2 58470  97.3726 241.1350 0006947  74.3054 285.8966 15.56452931 85856
SITRO-AIS 25            
1 59066U 24039R   25165.83348036  .00005944  00000+0  50283-3 0  9990
2 59066  95.3753 343.5844 0156133 168.0095 192.4915 14.89174846 69973
SITRO-AIS 26            
1 59067U 24039S   25165.85989651  .00005237  00000+0  44487-3 0  9991
2 59067  95.3759 343.5614 0156301 168.1453 192.3520 14.89030966 69976
SITRO-AIS 27            
1 59068U 24039T   25165.85376610  .00006098  00000+0  51401-3 0  9997
2 59068  95.3759 343.6830 0155609 167.4887 193.0270 14.89354883 69989
SITRO-AIS 28            
1 59071U 24039U   25165.84068025  .00006471  00000+0  54490-3 0  9994
2 59071  95.3758 343.7008 0155476 167.4481 193.0686 14.89394448 69984
GRBBETA                 
1 60237U 24128C   25165.85984966  .00004586  00000+0  34752-3 0  9995
2 60237  61.9925  61.1492 0052382  58.7677 301.8532 15.02682204 50990
OOV-CUBE (TUBSAT-30)    
1 60240U 24128F   25165.46184866  .00003101  00000+0  25571-3 0  9998
2 60240  61.9965  65.4099 0052369  55.5193 305.0827 15.00285308 50895
ROBUSTA-3A (MEDITERRAN*)
1 60243U 24128J   25165.42680409  .00008750  00000+0  61473-3 0  9997
2 60243  61.9892  61.7257 0051074  52.4463 308.1253 15.04717984 50958
LASARSAT                
1 62391U 24247Q   25165.29043499  .00015885  00000+0  61526-3 0  9998
2 62391  44.9838 134.2872 0006946  74.1057 286.0590 15.26037153 26781
CROCUBE                 
1 62394U 24247T   25165.61121264  .00014829  00000+0  57164-3 0  9994
2 62394  44.9789 132.4380 0007448  76.9881 283.1833 15.26238706 26837
